OBJECT_NAME,OBJECT_ID,EPOCH,MEAN_MOTION,ECCENTRICITY,INCLINATION,RA_OF_ASC_NODE,ARG_OF_PERICENTER,MEAN_ANOMALY,EPHEMERIS_TYPE,CLASSIFICATION_TYPE,NORAD_CAT_ID,ELEMENT_SET_NO,REV_AT_EPOCH,BSTAR,MEAN_MOTION_DOT,MEAN_MOTION_DDOT
GEOSCAN 4 (RS92S4),2025-155S,2026-05-11T04:17:26.916864,15.32393827,.0004616,97.4529,100.3378,334.9894,25.1123,0,U,64892,999,7515,.30377E-3,.9427E-4,0
GEOSCAN 3 (RS92S3),2025-155T,2026-05-11T03:49:09.359040,15.34143733,.00042335,97.4518,100.6478,338.2457,21.8605,0,U,64893,999,7517,.36047169E-3,.11839E-3,0
INNOSAT 3 (RS92S0),2025-155U,2026-05-11T03:21:32.725440,15.41286172,.0002849,97.4476,101.8310,354.4364,5.6851,0,U,64894,999,7525,.61335698E-3,.255E-3,0
2025-155V,2025-155V,2026-05-11T04:33:34.748928,15.28872642,.0005552,97.4555,99.6058,322.8287,37.2568,0,U,64895,999,7509,.21868E-3,.606E-4,0
SKYCRAFT-4C,2025-154H,2026-05-11T03:22:18.204672,14.95086336,.0006173,97.6708,196.0708,39.8317,320.3356,0,U,64896,999,19361,.17604E-3,.1873E-4,0
SKYCRAFT-4A,2025-154J,2026-05-11T04:32:56.726016,14.96207915,.0005687,97.6717,196.3411,45.3986,314.7698,0,U,64897,999,4185,.41253E-3,.4597E-4,0
SKYKRAFT-4D,2025-154K,2026-05-11T04:30:43.651008,14.95801343,.0005021,97.6688,196.1110,39.5240,320.6346,0,U,64898,999,4176,.33253E-3,.3655E-4,0
MICROCARB,2025-156A,2026-05-11T04:17:12.603840,14.72286091,.0017051,97.9832,208.9762,34.9600,325.2723,0,U,64899,999,4252,.55473E-4,.301E-5,0
CO3D 3,2025-156B,2026-05-11T04:41:07.433088,15.20203915,.0000411,97.4327,210.4198,35.3293,324.7969,0,U,64900,999,4391,.11862E-3,.2501E-4,0
CO3D 4,2025-156C,2026-05-11T03:06:33.729120,15.20213931,.0001806,97.4326,210.3548,77.3991,282.7446,0,U,64901,999,4390,.12253E-3,.2587E-4,0
CO3D 2,2025-156D,2026-05-11T03:53:19.436064,15.20212573,.00004602,97.4327,210.2859,121.5122,238.6158,0,U,64902,999,4390,.12848507E-3,.2716E-4,0
CO3D 1,2025-156E,2026-05-11T03:53:33.158112,15.20193767,.00005017,97.4328,210.2861,87.0157,273.1136,0,U,64903,999,4390,.13698677E-3,.2898E-4,0
STARLINK-34647,2025-157A,2026-05-11T02:07:49.058400,15.30197060,.0001149,53.1580,56.0973,85.6048,274.5083,0,U,64904,999,4566,.33756E-3,.9651E-4,0
STARLINK-34273,2025-157B,2026-05-11T01:52:37.104672,15.30207672,.0001228,53.1578,56.0282,88.0184,272.0957,0,U,64905,999,4568,.38133E-3,.10954E-3,0
STARLINK-34713,2025-157C,2026-05-11T04:37:55.207776,15.30177118,.0000986,53.1595,55.3251,60.7711,299.3389,0,U,64906,999,4564,.51015E-3,.14769E-3,0
STARLINK-34712,2025-157D,2026-05-11T04:30:17.919360,15.34417104,.0000837,53.1602,54.5806,82.1942,277.9155,0,U,64907,999,4570,.49419E-3,.16366E-3,0
STARLINK-34702,2025-157E,2026-05-11T01:12:43.511040,15.31709024,.0001532,53.1615,55.8533,95.0077,265.1099,0,U,64908,999,4567,.22479E-3,.6618E-4,0
STARLINK-34687,2025-157F,2026-05-11T04:51:36.650592,15.30229173,.0000932,53.1586,55.3799,75.6512,284.4592,0,U,64909,999,4564,.59818E-3,.17415E-3,0
STARLINK-34642,2025-157G,2026-05-11T00:39:07.106112,15.31713110,.0001515,53.1591,55.7139,72.5578,287.5589,0,U,64910,999,4567,.40626E-3,.12268E-3,0
STARLINK-34718,2025-157H,2026-05-11T01:58:41.952000,15.30202286,.0000995,53.1563,56.0526,67.8437,292.2669,0,U,64911,999,4567,.3794E-3,.10895E-3,0
STARLINK-34711,2025-157J,2026-05-11T01:49:34.372128,15.30229634,.0001002,53.1576,56.0176,99.3725,260.7389,0,U,64912,999,4567,.1048E-2,.30838E-3,0
STARLINK-34659,2025-157K,2026-05-11T02:39:57.792384,15.31707790,.0001251,53.1621,55.5231,87.3148,272.7997,0,U,64913,999,4563,.19071E-3,.5559E-4,0
STARLINK-34571,2025-157L,2026-05-11T02:01:44.230080,15.30200834,.0000931,53.1562,56.0622,54.1218,305.9869,0,U,64914,999,4562,.27397E-3,.7764E-4,0
STARLINK-34636,2025-157M,2026-05-11T04:45:32.687136,15.30231473,.0001007,53.1592,55.3544,74.6610,285.4502,0,U,64915,999,4569,.78081E-3,.2286E-3,0
STARLINK-34695,2025-157N,2026-05-11T04:25:26.340960,15.38778151,.0001142,53.1597,48.8858,80.2956,279.8177,0,U,64916,999,4578,.63717E-3,.24476E-3,0
STARLINK-34653,2025-157P,2026-05-11T01:59:46.301856,15.31711103,.0001036,53.1586,56.0523,54.5351,305.5746,0,U,64917,999,4562,.26897E-3,.7993E-4,0
STARLINK-34611,2025-157Q,2026-05-11T03:44:54.497184,15.30202418,.0001004,53.1577,55.8023,82.5697,277.5418,0,U,64918,999,4568,.50082E-3,.14504E-3,0
STARLINK-34599,2025-157R,2026-05-11T01:23:44.693088,15.30207000,.0001623,53.1597,55.8918,93.8833,266.2353,0,U,64919,999,4567,.46E-3,.13292E-3,0
STARLINK-34069,2025-157S,2026-05-11T02:03:15.403680,15.30208985,.0001325,53.1586,56.0711,78.8646,281.2503,0,U,64920,999,4567,.36174E-3,.10372E-3,0
STARLINK-34699,2025-157T,2026-05-11T01:54:07.271712,15.30205798,.0001146,53.1580,56.0340,76.0813,284.0315,0,U,64921,999,4567,.10638E-3,.2793E-4,0
