GEOSCAN 4 (RS92S4)      
1 64892U 25155S   26131.17878376  .00009427  00000+0  30377-3 0  9991
2 64892  97.4529 100.3378 0004616 334.9894  25.1123 15.32393827 75151
GEOSCAN 3 (RS92S3)      
1 64893U 25155T   26131.15913610  .00011839  00000+0  36047-3 0  9991
2 64893  97.4518 100.6478 0004233 338.2457  21.8605 15.34143733 75172
INNOSAT 3 (RS92S0)      
1 64894U 25155U   26131.13996210  .00025500  00000+0  61336-3 0  9996
2 64894  97.4476 101.8310 0002849 354.4364   5.6851 15.41286172 75257
2025-155V               
1 64895U 25155V   26131.18998552  .00006060  00000+0  21868-3 0  9999
2 64895  97.4555  99.6058 0005552 322.8287  37.2568 15.28872642 75092
SKYCRAFT-4C             
1 64896U 25154H   26131.14048848  .00001873  00000+0  17604-3 0  9999
2 64896  97.6708 196.0708 0006173  39.8317 320.3356 14.95086336193618
SKYCRAFT-4A             
1 64897U 25154J   26131.18954544  .00004597  00000+0  41253-3 0  9996
2 64897  97.6717 196.3411 0005687  45.3986 314.7698 14.96207915 41859
SKYKRAFT-4D             
1 64898U 25154K   26131.18800522  .00003655  00000+0  33253-3 0  9998
2 64898  97.6688 196.1110 0005021  39.5240 320.6346 14.95801343 41761
MICROCARB               
1 64899U 25156A   26131.17861810  .00000301  00000+0  55473-4 0  9991
2 64899  97.9832 208.9762 0017051  34.9600 325.2723 14.72286091 42523
CO3D 3                  
1 64900U 25156B   26131.19522492  .00002501  00000+0  11862-3 0  9993
2 64900  97.4327 210.4198 0000411  35.3293 324.7969 15.20203915 43914
CO3D 4                  
1 64901U 25156C   26131.12955705  .00002587  00000+0  12253-3 0  9993
2 64901  97.4326 210.3548 0001806  77.3991 282.7446 15.20213931 43903
CO3D 2                  
1 64902U 25156D   26131.16203051  .00002716  00000+0  12849-3 0  9993
2 64902  97.4327 210.2859 0000460 121.5122 238.6158 15.20212573 43903
CO3D 1                  
1 64903U 25156E   26131.16218933  .00002898  00000+0  13699-3 0  9994
2 64903  97.4328 210.2861 0000501  87.0157 273.1136 15.20193767 43901
STARLINK-34647          
1 64904U 25157A   26131.08876225  .00009651  00000+0  33756-3 0  9991
2 64904  53.1580  56.0973 0001149  85.6048 274.5083 15.30197060 45665
STARLINK-34273          
1 64905U 25157B   26131.07820723  .00010954  00000+0  38133-3 0  9995
2 64905  53.1578  56.0282 0001228  88.0184 272.0957 15.30207672 45688
STARLINK-34713          
1 64906U 25157C   26131.19300009  .00014769  00000+0  51015-3 0  9991
2 64906  53.1595  55.3251 0000986  60.7711 299.3389 15.30177118 45647
STARLINK-34712          
1 64907U 25157D   26131.18770740  .00016366  00000+0  49419-3 0  9994
2 64907  53.1602  54.5806 0000837  82.1942 277.9155 15.34417104 45709
STARLINK-34702          
1 64908U 25157E   26131.05050360  .00006618  00000+0  22479-3 0  9996
2 64908  53.1615  55.8533 0001532  95.0077 265.1099 15.31709024 45674
STARLINK-34687          
1 64909U 25157F   26131.20250753  .00017415  00000+0  59818-3 0  9996
2 64909  53.1586  55.3799 0000932  75.6512 284.4592 15.30229173 45642
STARLINK-34642          
1 64910U 25157G   26131.02716558  .00012268  00000+0  40626-3 0  9996
2 64910  53.1591  55.7139 0001515  72.5578 287.5589 15.31713110 45671
STARLINK-34718          
1 64911U 25157H   26131.08243000  .00010895  00000+0  37940-3 0  9999
2 64911  53.1563  56.0526 0000995  67.8437 292.2669 15.30202286 45675
STARLINK-34711          
1 64912U 25157J   26131.07609227  .00030838  00000+0  10480-2 0  9994
2 64912  53.1576  56.0176 0001002  99.3725 260.7389 15.30229634 45676
STARLINK-34659          
1 64913U 25157K   26131.11108556  .00005559  00000+0  19071-3 0  9997
2 64913  53.1621  55.5231 0001251  87.3148 272.7997 15.31707790 45635
STARLINK-34571          
1 64914U 25157L   26131.08453970  .00007764  00000+0  27397-3 0  9997
2 64914  53.1562  56.0622 0000931  54.1218 305.9869 15.30200834 45626
STARLINK-34636          
1 64915U 25157M   26131.19829499  .00022860  00000+0  78081-3 0  9993
2 64915  53.1592  55.3544 0001007  74.6610 285.4502 15.30231473 45699
STARLINK-34695          
1 64916U 25157N   26131.18433265  .00024476  00000+0  63717-3 0  9990
2 64916  53.1597  48.8858 0001142  80.2956 279.8177 15.38778151 45788
STARLINK-34653          
1 64917U 25157P   26131.08317479  .00007993  00000+0  26897-3 0  9991
2 64917  53.1586  56.0523 0001036  54.5351 305.5746 15.31711103 45621
STARLINK-34611          
1 64918U 25157Q   26131.15618631  .00014504  00000+0  50082-3 0  9993
2 64918  53.1577  55.8023 0001004  82.5697 277.5418 15.30202418 45686
STARLINK-34599          
1 64919U 25157R   26131.05815617  .00013292  00000+0  46000-3 0  9994
2 64919  53.1597  55.8918 0001623  93.8833 266.2353 15.30207000 45670
STARLINK-34069          
1 64920U 25157S   26131.08559495  .00010372  00000+0  36174-3 0  9995
2 64920  53.1586  56.0711 0001325  78.8646 281.2503 15.30208985 45675
STARLINK-34699          
1 64921U 25157T   26131.07925083  .00002793  00000+0  10638-3 0  9990
2 64921  53.1580  56.0340 0001146  76.0813 284.0315 15.30205798 45676
